[{"OBJECT_NAME":"YUNHAI-2 02D","OBJECT_ID":"2024-052D","EPOCH":"2026-03-10T00:10:43.097664","MEAN_MOTION":14.27955868,"ECCENTRICITY":0.00044025,"INCLINATION":50.0099,"RA_OF_ASC_NODE":322.6736,"ARG_OF_PERICENTER":235.7581,"MEAN_ANOMALY":124.2918,"EPHEMERIS_TYPE":0,"CLASSIFICATION_TYPE":"U","NORAD_CAT_ID":59283,"ELEMENT_SET_NO":999,"REV_AT_EPOCH":10422,"BSTAR":0.00012605857,"MEAN_MOTION_DOT":1.53e-6,"MEAN_MOTION_DDOT":0},{"OBJECT_NAME":"FENGYUN 1C DEB","OBJECT_ID":"1999-025BHX","EPOCH":"2026-03-09T14:33:14.297472","MEAN_MOTION":14.27410899,"ECCENTRICITY":0.0059271,"INCLINATION":99.148,"RA_OF_ASC_NODE":104.0201,"ARG_OF_PERICENTER":128.2473,"MEAN_ANOMALY":232.4061,"EPHEMERIS_TYPE":0,"CLASSIFICATION_TYPE":"U","NORAD_CAT_ID":31169,"ELEMENT_SET_NO":999,"REV_AT_EPOCH":58343,"BSTAR":0.0020905,"MEAN_MOTION_DOT":5.18e-5,"MEAN_MOTION_DDOT":0}]
